NORAD_CAT_ID,OBJECT_NAME,OBJECT_TYPE,EPOCH,MEAN_MOTION,ECCENTRICITY,INCLINATION,RA_OF_ASC_NODE,ARG_OF_PERICENTER,MEAN_ANOMALY,BSTAR,MEAN_MOTION_DOT,MEAN_MOTION_DDOT,TLE_LINE0,TLE_LINE1,TLE_LINE2,SEMIMAJOR_AXIS,PERIOD,APOGEE,PERIGEE,DECAYED
55395.0,STARLINK-5274,PAYLOAD,2024-04-09 03:33:21,14.98333498,0.0002749,70.0029,28.1302,268.76,91.3244,0.00013776,1.551e-05,0.0,0 STARLINK-5274,1 55395U 23014E   24100.14816298  .00001551  00000-0  13776-3 0  9992,2 55395  70.0029  28.1302 0002749 268.7600  91.3244 14.98333498 66337,6950.182,96.107,573.958,570.136,0.0
55395.0,STARLINK-5274,PAYLOAD,2024-04-09 05:09:29,14.98335556,0.000282,70.0029,27.9619,269.4547,90.6288,0.00020442,2.347e-05,0.0,0 STARLINK-5274,1 55395U 23014E   24100.21492182  .00002347  00000-0  20442-3 0  9994,2 55395  70.0029  27.9619 0002820 269.4547  90.6288 14.98335556 67285,6950.176,96.107,574.001,570.081,0.0
55395.0,STARLINK-5274,PAYLOAD,2024-04-09 22:46:58,14.98324811,0.0002648,70.0028,26.1104,262.3377,97.7482,0.00060153,7.091e-05,0.0,0 STARLINK-5274,1 55395U 23014E   24100.94928672  .00007091  00000-0  60153-3 0  9996,2 55395  70.0028  26.1104 0002648 262.3377  97.7482 14.98324811 67393,6950.209,96.107,573.914,570.234,0.0
55395.0,STARLINK-5274,PAYLOAD,2024-04-10 03:35:22,14.98335122,0.0002757,70.0027,25.6059,265.0798,95.0046,0.00021546,2.479e-05,0.0,0 STARLINK-5274,1 55395U 23014E   24101.14956091  .00002479  00000-0  21546-3 0  9993,2 55395  70.0027  25.6059 0002757 265.0798  95.0046 14.98335122 66486,6950.177,96.107,573.958,570.126,0.0
55395.0,STARLINK-5274,PAYLOAD,2024-04-10 11:36:01,14.98349616,0.0002641,70.005,24.7645,270.776,89.3096,-0.00076369,-9.198e-05,0.0,0 STARLINK-5274,1 55395U 23014E   24101.48335000 -.00009198  00000-0 -76369-3 0  9991,2 55395  70.0050  24.7645 0002641 270.7760  89.3096 14.98349616 66537,6950.132,96.106,573.833,570.162,0.0
55395.0,STARLINK-5274,PAYLOAD,2024-04-10 21:12:50,14.98331456,0.0002835,70.0025,23.7541,269.851,90.2325,1.2208e-05,5.3e-07,0.0,0 STARLINK-5274,1 55395U 23014E   24101.88392184  .00000053  00000-0  12208-4 0  9993,2 55395  70.0025  23.7541 0002835 269.8510  90.2325 14.98331456 66595,6950.188,96.107,574.024,570.083,0.0
55395.0,STARLINK-5274,PAYLOAD,2024-04-11 05:13:31,14.98320813,0.0002842,70.003,22.9133,276.0423,84.0413,-9.7964e-05,-1.261e-05,0.0,0 STARLINK-5274,1 55395U 23014E   24102.21772756 -.00001261  00000-0 -97964-4 0  9994,2 55395  70.0030  22.9133 0002842 276.0423  84.0413 14.98320813 66640,6950.221,96.108,574.062,570.111,0.0
55395.0,STARLINK-5274,PAYLOAD,2024-04-11 11:38:02,14.98339968,0.0002906,70.0032,22.24,268.0045,92.0781,-0.00026565,-3.262e-05,0.0,0 STARLINK-5274,1 55395U 23014E   24102.48475602 -.00003262  00000-0 -26565-3 0  9994,2 55395  70.0032  22.2400 0002906 268.0045  92.0781 14.98339968 66686,6950.162,96.106,574.047,570.007,0.0
55395.0,STARLINK-5274,PAYLOAD,2024-04-11 21:14:51,14.98332164,0.0002946,70.0025,21.23,265.8495,94.2327,0.00012578,1.408e-05,0.0,0 STARLINK-5274,1 55395U 23014E   24102.88532108  .00001408  00000-0  12578-3 0  9990,2 55395  70.0025  21.2300 0002946 265.8495  94.2327 14.98332164 66742,6950.186,96.107,574.099,570.004,0.0
55395.0,STARLINK-5274,PAYLOAD,2024-04-12 05:15:31,14.98335032,0.0002955,70.0023,20.3872,269.0368,91.0452,0.00016375,1.862e-05,0.0,0 STARLINK-5274,1 55395U 23014E   24103.21911960  .00001862  00000-0  16375-3 0  9998,2 55395  70.0023  20.3872 0002955 269.0368  91.0452 14.98335032 67730,6950.177,96.107,574.096,569.989,0.0
55395.0,STARLINK-5274,PAYLOAD,2024-04-12 22:53:00,14.98331369,0.0002741,70.003,18.536,265.9459,94.1386,0.00014431,1.629e-05,0.0,0 STARLINK-5274,1 55395U 23014E   24103.95348197  .00001629  00000-0  14431-3 0  9997,2 55395  70.0030  18.5360 0002741 265.9459  94.1386 14.98331369 67849,6950.189,96.107,573.959,570.149,0.0
55395.0,STARLINK-5274,PAYLOAD,2024-04-13 03:41:24,14.98332507,0.0002844,70.0028,18.0312,259.599,100.4849,0.00017135,1.952e-05,0.0,0 STARLINK-5274,1 55395U 23014E   24104.15376103  .00001952  00000-0  17135-3 0  9991,2 55395  70.0028  18.0312 0002844 259.5990 100.4849 14.98332507 66930,6950.185,96.107,574.027,570.074,0.0
55395.0,STARLINK-5274,PAYLOAD,2024-04-13 21:18:53,14.98335373,0.0002743,70.0029,16.1793,264.9612,95.1234,0.00016975,1.933e-05,0.0,0 STARLINK-5274,1 55395U 23014E   24104.88811939  .00001933  00000-0  16975-3 0  9992,2 55395  70.0029  16.1793 0002743 264.9612  95.1234 14.98335373 67980,6950.176,96.107,573.948,570.135,0.0
55395.0,STARLINK-5274,PAYLOAD,2024-04-14 03:43:25,14.9833524,0.0002724,70.0027,15.506,264.9672,95.1176,0.00014083,1.588e-05,0.0,0 STARLINK-5274,1 55395U 23014E   24105.15515926  .00001588  00000-0  14083-3 0  9994,2 55395  70.0027  15.5060 0002724 264.9672  95.1176 14.98335240 67082,6950.177,96.107,573.935,570.148,0.0
55395.0,STARLINK-5274,PAYLOAD,2024-04-14 21:20:54,14.98336557,0.0002765,70.0028,13.6557,255.4923,104.5929,0.00015709,1.782e-05,0.0,0 STARLINK-5274,1 55395U 23014E   24105.88951704  .00001782  00000-0  15709-3 0  9994,2 55395  70.0028  13.6557 0002765 255.4923 104.5929 14.98336557 68132,6950.173,96.107,573.959,570.116,0.0
55395.0,STARLINK-5274,PAYLOAD,2024-04-15 03:45:26,14.98337793,0.0002745,70.0017,12.9821,262.0837,98.0011,0.0001399,1.577e-05,0.0,0 STARLINK-5274,1 55395U 23014E   24106.15655596  .00001577  00000-0  13990-3 0  9997,2 55395  70.0017  12.9821 0002745 262.0837  98.0011 14.98337793 67234,6950.169,96.106,573.942,570.126,0.0
55395.0,STARLINK-5274,PAYLOAD,2024-04-15 21:22:55,14.98334832,0.0002684,70.0018,11.1313,260.4629,99.6227,0.00010386,1.147e-05,0.0,0 STARLINK-5274,1 55395U 23014E   24106.89091712  .00001147  00000-0  10386-3 0  9991,2 55395  70.0018  11.1313 0002684 260.4629  99.6227 14.98334832 68288,6950.178,96.107,573.908,570.178,0.0
55395.0,STARLINK-5274,PAYLOAD,2024-04-16 03:47:27,14.98339335,0.0002645,70.0019,10.4578,256.5533,103.5331,0.00015034,1.702e-05,0.0,0 STARLINK-5274,1 55395U 23014E   24107.15795300  .00001702  00000-0  15034-3 0  9997,2 55395  70.0019  10.4578 0002645 256.5533 103.5331 14.98339335 67385,6950.164,96.106,573.867,570.191,0.0
55395.0,STARLINK-5274,PAYLOAD,2024-04-16 10:11:59,14.98341681,0.0002302,70.0026,9.783,268.9744,91.1152,4.618e-05,4.58e-06,0.0,0 STARLINK-5274,1 55395U 23014E   24107.42499368  .00000458  00000-0  46180-4 0  9996,2 55395  70.0026   9.7830 0002302 268.9744  91.1152 14.98341681 68365,6950.157,96.106,573.622,570.422,0.0
55395.0,STARLINK-5274,PAYLOAD,2024-04-16 21:24:55,14.98341277,0.0002672,70.0028,8.6034,271.971,88.1143,0.00028185,3.273e-05,0.0,0 STARLINK-5274,1 55395U 23014E   24107.89230988  .00003273  00000-0  28185-3 0  9990,2 55395  70.0028   8.6034 0002672 271.9710  88.1143 14.98341277 68433,6950.158,96.106,573.88,570.166,0.0
55395.0,STARLINK-5274,PAYLOAD,2024-04-17 03:49:26,14.98360583,0.0002702,70.0024,7.9315,270.4352,89.6497,0.00054329,6.4e-05,0.0,0 STARLINK-5274,1 55395U 23014E   24108.15933789  .00006400  00000-0  54329-3 0  9993,2 55395  70.0024   7.9315 0002702 270.4352  89.6497 14.98360583 67532,6950.098,96.105,573.841,570.085,0.0
55395.0,STARLINK-5274,PAYLOAD,2024-04-17 19:50:48,14.98319552,0.0002993,70.0028,6.2476,270.272,89.8096,-0.00035535,-4.329e-05,0.0,0 STARLINK-5274,1 55395U 23014E   24108.82695578 -.00004329  00000-0 -35535-3 0  9996,2 55395  70.0028   6.2476 0002993 270.2720  89.8096 14.98319552 67633,6950.225,96.108,574.17,570.01,0.0
55395.0,STARLINK-5274,PAYLOAD,2024-04-17 21:26:57,14.98318432,0.0002976,70.0027,6.0795,269.1212,90.9606,-0.00036421,-4.435e-05,0.0,0 STARLINK-5274,1 55395U 23014E   24108.89371652 -.00004435  00000-0 -36421-3 0  9990,2 55395  70.0027   6.0795 0002976 269.1212  90.9606 14.98318432 68589,6950.229,96.108,574.162,570.025,0.0
55395.0,STARLINK-5274,PAYLOAD,2024-04-18 00:39:13,14.98316922,0.0003032,70.0022,5.7429,264.6655,95.4158,-0.00036954,-4.498e-05,0.0,0 STARLINK-5274,1 55395U 23014E   24109.02723762 -.00004498  00000-0 -36954-3 0  9999,2 55395  70.0022   5.7429 0003032 264.6655  95.4158 14.98316922 68606,6950.233,96.108,574.206,569.991,0.0
55395.0,STARLINK-5274,PAYLOAD,2024-04-18 19:52:50,14.98324642,0.0003188,70.0023,3.725,256.6618,103.4186,5.1129e-05,5.17e-06,0.0,0 STARLINK-5274,1 55395U 23014E   24109.82835979  .00000517  00000-0  51129-4 0  9999,2 55395  70.0023   3.7250 0003188 256.6618 103.4186 14.98324642 67786,6950.209,96.107,574.29,569.859,0.0
55395.0,STARLINK-5274,PAYLOAD,2024-04-18 21:28:58,14.98326487,0.0003185,70.0024,3.5568,257.6559,102.4244,0.00012833,1.438e-05,0.0,0 STARLINK-5274,1 55395U 23014E   24109.89511976  .00001438  00000-0  12833-3 0  9995,2 55395  70.0024   3.5568 0003185 257.6559 102.4244 14.98326487 68738,6950.204,96.107,574.282,569.855,0.0
55395.0,STARLINK-5274,PAYLOAD,2024-04-19 02:17:22,14.9833631,0.0003296,70.0021,3.0531,250.3333,109.7471,0.00068287,8.066e-05,0.0,0 STARLINK-5274,1 55395U 23014E   24110.09539819  .00008066  00000-0  68287-3 0  9993,2 55395  70.0021   3.0531 0003296 250.3333 109.7471 14.98336310 67820,6950.173,96.107,574.329,569.748,0.0
55395.0,STARLINK-5274,PAYLOAD,2024-04-19 21:30:58,14.98363103,0.0002811,70.0038,1.0324,246.6951,113.3912,0.0016085,0.00019168,0.0,0 STARLINK-5274,1 55395U 23014E   24110.89651418  .00019168  00000-0  16085-2 0  9994,2 55395  70.0038   1.0324 0002811 246.6951 113.3912 14.98363103 68880,6950.091,96.105,573.909,570.002,0.0
55395.0,STARLINK-5274,PAYLOAD,2024-04-20 02:19:22,14.98379994,0.0003051,70.002,0.5249,262.5438,97.5374,0.0021343,0.00025499,0.0,0 STARLINK-5274,1 55395U 23014E   24111.09678766  .00025499  00000-0  21343-2 0  9999,2 55395  70.0020   0.5249 0003051 262.5438  97.5374 14.98379994 67974,6950.038,96.104,574.024,569.783,0.0
55395.0,STARLINK-5274,PAYLOAD,2024-04-20 19:56:51,14.98311455,0.0002909,70.0043,358.6761,267.349,92.7336,-0.0010334,-0.00012396,0.0,0 STARLINK-5274,1 55395U 23014E   24111.83115716 -.00012396  00000-0 -10334-2 0  9994,2 55395  70.0043 358.6761 0002909 267.3490  92.7336 14.98311455 68083,6950.25,96.108,574.137,570.093,0.0
